H-2A R/B                
1 28932U 06002B   26177.15048747  .00008118  00000+0  38848-3 0  9992
2 28932  98.2567 333.7914 0049790 231.1202 128.5583 15.18172776110888
RESURS-DK 1             
1 29228U 06021A   26177.15751604  .00002327  00000+0  13662-3 0  9998
2 29228  69.9337 316.3330 0006743 287.6006  72.4424 15.13251602103935
CZ-4B R/B               
1 29507U 06046C   26177.08697536  .00004426  00000+0  21948-3 0  9998
2 29507  97.5452 221.6664 0031059 250.2052 109.5832 15.17843200 76482
CZ-2C R/B               
1 31114U 07010B   26177.28866503  .00000056  00000+0  44947-4 0  9991
2 31114  98.4105 285.1947 0058471 339.5987  20.2855 14.20277989995132
COSMO-SKYMED 1          
1 31598U 07023A   26177.29157648  .00003154  00000+0  27828-3 0  9995
2 31598  97.8861   9.2240 0001821  90.2508 269.8922 14.97147410 31156
COSMOS 2428             
1 31792U 07029A   26176.85159366 -.00000018  00000+0  15916-4 0  9990
2 31792  70.9372 336.2845 0007132 118.3647 241.8194 14.12927688979378
SL-16 R/B               
1 31793U 07029B   26176.82385163 -.00000191  00000+0 -73955-4 0  9994
2 31793  70.9771 305.0727 0002447 263.7165 250.8019 14.14855103980663
KORONAS-FOTON           
1 33504U 09003A   26177.27065026  .00011462  00000+0  23434-3 0  9990
2 33504  82.4285 162.7824 0012436 119.0822 241.1674 15.45898480962504
CZ-2C R/B               
1 37731U 11030B   26176.88929628  .00001196  00000+0  15597-3 0  9996
2 37731  97.8657 132.1183 0052294 359.9423  63.4790 14.81491224806112
H-2A R/B                
1 38341U 12025E   26176.92043332  .00002553  00000+0  23111-3 0  9992
2 38341  98.4822 152.7859 0043129 319.7871  40.0159 14.95754701764397
SHIJIAN-16 (SJ-16)      
1 39358U 13057A   26177.28804656  .00001467  00000+0  14499-3 0  9993
2 39358  74.9730 339.4451 0016522 209.7679 150.2571 14.92621533687700
SL-4 R/B                
1 39679U 14021B   26177.26636069  .00010508  00000+0  21700-3 0  9999
2 39679  51.6031 166.2864 0090801 139.0401 221.7452 15.42122556673014
ALOS-2                  
1 39766U 14029A   26177.26960539  .00000855  00000+0  12139-3 0  9996
2 39766  97.9220 274.3033 0001597  89.7314 270.4081 14.79469184652927
YAOGAN-29               
1 41038U 15069A   26177.28598400 -.00000040  00000+0  17472-5 0  9996
2 41038  98.0029 205.9330 0002130  39.1837 320.9530 14.83089930571971
ASTRO-H (HITOMI)        
1 41337U 16012A   26177.21934331  .00002776  00000+0  15844-3 0  9993
2 41337  31.0005  15.8539 0009712 343.6046  16.4277 15.10548819568654
HXMT (HUIYAN)           
1 42758U 17034A   26177.27741197  .00004686  00000+0  23138-3 0  9995
2 42758  43.0130 132.4204 0031988 204.9644 154.9658 15.18532920499043
SAOCOM 1A               
1 43641U 18076A   26177.31749176 -.00000075  00000+0 -29085-5 0  9993
2 43641  97.8888   3.9334 0001567  79.7370 280.4020 14.82152875417452
H-2A R/B                
1 43682U 18084L   26177.25834483  .00021914  00000+0  45450-3 0  9991
2 43682  98.8575  58.1321 0022403   9.5358 350.6307 15.45492395422524
SAOCOM 1B               
1 46265U 20059A   26176.67355053  .00000424  00000+0  59858-4 0  9993
2 46265  97.8891   2.3941 0001605  84.2973 275.8423 14.82151565314749
CSS (TIANHE)            
1 48274U 21035A   26177.25390454  .00024915  00000+0  28866-3 0  9994
2 48274  41.4689 266.8099 0007970 154.5475 205.5758 15.61201320294584
COSMOS 2550             
1 48865U 21056A   26177.28354494  .00005569  00000+0  17484-3 0  9998
2 48865  67.1437  72.3900 0008415 268.0395  91.9795 15.33852714280114
CZ-2C R/B               
1 52794U 22058K   26177.00553739  .00040257  00000+0  43630-3 0  9995
2 52794  50.1846 117.6128 0031897 304.0762  55.7186 15.62450808227023
CZ-2C R/B               
1 54039U 22132E   26177.00067075  .00070428  00000+0  52173-3 0  9990
2 54039  97.2898 184.4233 0014293  56.3391 303.9234 15.72565857207337
GSLV R/B                
1 54149U 22138AN  26177.27393569  .00003341  00000+0  28416-3 0  9990
2 54149  87.3809 129.9326 0023934 113.4638 246.9114 14.97295928200172
XRISM                   
1 57800U 23137A   26176.76981435  .00005063  00000+0  27781-3 0  9992
2 57800  31.0027 304.0050 0007833  50.1002 310.0325 15.12535306154168
ACS3                    
1 59588U 24077B   26177.24702165  .00008729  00000+0  63158-2 0  9995
2 59588  97.1686  94.0198 0094380  57.3429 303.6800 13.94545563109307
CZ-8A R/B               
1 66004U 25231K   26177.20554416 -.00000018  00000+0  51912-4 0  9990
2 66004  50.0055   0.9480 0116489 255.7486 103.0468 14.30157222 36233
SZ-21 MODULE            
1 66515U 25246C   26176.57650077  .00054193  00000+0  32197-3 0  9997
2 66515  41.4721 255.0496 0005109  55.8742 304.2587 15.77097692 35067
