OBJECT_NAME,OBJECT_ID,EPOCH,MEAN_MOTION,ECCENTRICITY,INCLINATION,RA_OF_ASC_NODE,ARG_OF_PERICENTER,MEAN_ANOMALY,EPHEMERIS_TYPE,CLASSIFICATION_TYPE,NORAD_CAT_ID,ELEMENT_SET_NO,REV_AT_EPOCH,BSTAR,MEAN_MOTION_DOT,MEAN_MOTION_DDOT
H-2A R/B,2006-002B,2026-06-26T03:36:42.117408,15.18172776,.00497906,98.2567,333.7914,231.1202,128.5583,0,U,28932,999,11088,.38847837E-3,.8118E-4,0
RESURS-DK 1,2006-021A,2026-06-26T03:46:49.385856,15.13251602,.00067434,69.9337,316.3330,287.6006,72.4424,0,U,29228,999,10393,.13661769E-3,.2327E-4,0
CZ-4B R/B,2006-046C,2026-06-26T02:05:14.671104,15.17843200,.00310596,97.5452,221.6664,250.2052,109.5832,0,U,29507,999,7648,.21948333E-3,.4426E-4,0
CZ-2C R/B,2007-010B,2026-06-26T06:55:40.658592,14.20277989,.00584714,98.4105,285.1947,339.5987,20.2855,0,U,31114,999,99513,.4494728E-4,.56E-6,0
COSMO-SKYMED 1,2007-023A,2026-06-26T06:59:52.207872,14.97147410,.00018217,97.8861,9.2240,90.2508,269.8922,0,U,31598,999,3115,.27827945E-3,.3154E-4,0
COSMOS 2428,2007-029A,2026-06-25T20:26:17.692224,14.12927688,.00071327,70.9372,336.2845,118.3647,241.8194,0,U,31792,999,97937,.15915879E-4,-.18E-6,0
SL-16 R/B,2007-029B,2026-06-25T19:46:20.780832,14.14855103,.00024475,70.9771,305.0727,263.7165,250.8019,0,U,31793,999,98066,-.73955371E-4,-.191E-5,0
KORONAS-FOTON,2009-003A,2026-06-26T06:29:44.182464,15.45898480,.00124366,82.4285,162.7824,119.0822,241.1674,0,U,33504,999,96250,.23433535E-3,.11462E-3,0
CZ-2C R/B,2011-030B,2026-06-25T21:20:35.198592,14.81491224,.00522947,97.8657,132.1183,359.9423,63.4790,0,U,37731,999,80611,.15597114E-3,.1196E-4,0
H-2A R/B,2012-025E,2026-06-25T22:05:25.438848,14.95754701,.00431298,98.4822,152.7859,319.7871,40.0159,0,U,38341,999,76439,.23111418E-3,.2553E-4,0
SHIJIAN-16 (SJ-16),2013-057A,2026-06-26T06:54:47.222784,14.92621533,.00165222,74.9730,339.4451,209.7679,150.2571,0,U,39358,999,68770,.14499263E-3,.1467E-4,0
SL-4 R/B,2014-021B,2026-06-26T06:23:33.563616,15.42122556,.00908019,51.6031,166.2864,139.0401,221.7452,0,U,39679,999,67301,.21700152E-3,.10508E-3,0
ALOS-2,2014-029A,2026-06-26T06:28:13.905696,14.79469184,.00015974,97.9220,274.3033,89.7314,270.4081,0,U,39766,999,65292,.12138619E-3,.855E-5,0
YAOGAN-29,2015-069A,2026-06-26T06:51:49.017600,14.83089930,.000213,98.0029,205.9330,39.1837,320.9530,0,U,41038,999,57197,.1747233E-5,-.4E-6,0
ASTRO-H (HITOMI),2016-012A,2026-06-26T05:15:51.261984,15.10548819,.00097126,31.0005,15.8539,343.6046,16.4277,0,U,41337,999,56865,.15843969E-3,.2776E-4,0
HXMT (HUIYAN),2017-034A,2026-06-26T06:39:28.394208,15.18532920,.00319883,43.0130,132.4204,204.9644,154.9658,0,U,42758,999,49904,.23137832E-3,.4686E-4,0
SAOCOM 1A,2018-076A,2026-06-26T07:37:11.288064,14.82152875,.00015676,97.8888,3.9334,79.7370,280.4020,0,U,43641,999,41745,-.2908543E-5,-.75E-6,0
H-2A R/B,2018-084L,2026-06-26T06:12:00.993312,15.45492395,.00224032,98.8575,58.1321,9.5358,350.6307,0,U,43682,999,42252,.45450063E-3,.21914E-3,0
SAOCOM 1B,2020-059A,2026-06-25T16:09:54.765792,14.82151565,.00016056,97.8891,2.3941,84.2973,275.8423,0,U,46265,999,31474,.59857824E-4,.424E-5,0
CSS (TIANHE),2021-035A,2026-06-26T06:05:37.352256,15.61201320,.00079703,41.4689,266.8099,154.5475,205.5758,0,U,48274,999,29458,.28865732E-3,.24915E-3,0
COSMOS 2550,2021-056A,2026-06-26T06:48:18.282816,15.33852714,.00084155,67.1437,72.3900,268.0395,91.9795,0,U,48865,999,28011,.17484246E-3,.5569E-4,0
CZ-2C R/B,2022-058K,2026-06-26T00:07:58.430496,15.62450808,.00318971,50.1846,117.6128,304.0762,55.7186,0,U,52794,999,22702,.43629874E-3,.40257E-3,0
CZ-2C R/B,2022-132E,2026-06-26T00:00:57.952800,15.72565857,.00142938,97.2898,184.4233,56.3391,303.9234,0,U,54039,999,20733,.52172772E-3,.70428E-3,0
GSLV R/B,2022-138AN,2026-06-26T06:34:28.043616,14.97295928,.00239349,87.3809,129.9326,113.4638,246.9114,0,U,54149,999,20017,.28415713E-3,.3341E-4,0
XRISM,2023-137A,2026-06-25T18:28:31.959840,15.12535306,.00078331,31.0027,304.0050,50.1002,310.0325,0,U,57800,999,15416,.27780799E-3,.5063E-4,0
ACS3,2024-077B,2026-06-26T05:55:42.670560,13.94545563,.00943807,97.1686,94.0198,57.3429,303.6800,0,U,59588,999,10930,.63158281E-2,.8729E-4,0
CZ-8A R/B,2025-231K,2026-06-26T04:55:59.015424,14.30157222,.01164895,50.0055,0.9480,255.7486,103.0468,0,U,66004,999,3623,.51912158E-4,-.18E-6,0
SZ-21 MODULE,2025-246C,2026-06-25T13:50:09.666528,15.77097692,.00051092,41.4721,255.0496,55.8742,304.2587,0,U,66515,999,3506,.32196874E-3,.54193E-3,0
